[{"OBJECT_NAME":"ATLAS CENTAUR 2","OBJECT_ID":"1963-047A","EPOCH":"2026-03-18T04:07:05.757024","MEAN_MOTION":14.12098844,"ECCENTRICITY":0.05474877,"INCLINATION":30.3523,"RA_OF_ASC_NODE":148.2392,"ARG_OF_PERICENTER":155.0361,"MEAN_ANOMALY":207.7787,"EPHEMERIS_TYPE":0,"CLASSIFICATION_TYPE":"U","NORAD_CAT_ID":694,"ELEMENT_SET_NO":999,"REV_AT_EPOCH":13282,"BSTAR":0.00021232701,"MEAN_MOTION_DOT":1.837e-5,"MEAN_MOTION_DDOT":0},{"OBJECT_NAME":"THOR AGENA D R/B","OBJECT_ID":"1964-002A","EPOCH":"2026-03-18T07:31:35.148864","MEAN_MOTION":14.34025146,"ECCENTRICITY":0.0032121,"INCLINATION":99.122,"RA_OF_ASC_NODE":91.1211,"ARG_OF_PERICENTER":232.2997,"MEAN_ANOMALY":127.5273,"EPHEMERIS_TYPE":0,"CLASSIFICATION_TYPE":"U","NORAD_CAT_ID":733,"ELEMENT_SET_NO":999,"REV_AT_EPOCH":23953,"BSTAR":8.387744e-5,"MEAN_MOTION_DOT":1.87e-6,"MEAN_MOTION_DDOT":0},{"OBJECT_NAME":"SL-3 R/B","OBJECT_ID":"1964-053B","EPOCH":"2026-03-17T23:20:16.615392","MEAN_MOTION":14.61374267,"ECCENTRICITY":0.00800537,"INCLINATION":65.0771,"RA_OF_ASC_NODE":306.9545,"ARG_OF_PERICENTER":289.6152,"MEAN_ANOMALY":69.6319,"EPHEMERIS_TYPE":0,"CLASSIFICATION_TYPE":"U","NORAD_CAT_ID":877,"ELEMENT_SET_NO":999,"REV_AT_EPOCH":26800,"BSTAR":5.1101255e-5,"MEAN_MOTION_DOT":1.38e-6,"MEAN_MOTION_DDOT":0},{"OBJECT_NAME":"SL-8 R/B","OBJECT_ID":"1967-045B","EPOCH":"2026-03-18T03:44:43.084608","MEAN_MOTION":14.4563006,"ECCENTRICITY":0.00645451,"INCLINATION":74.0132,"RA_OF_ASC_NODE":332.2795,"ARG_OF_PERICENTER":336.6183,"MEAN_ANOMALY":23.2041,"EPHEMERIS_TYPE":0,"CLASSIFICATION_TYPE":"U","NORAD_CAT_ID":2802,"ELEMENT_SET_NO":999,"REV_AT_EPOCH":9024,"BSTAR":9.2291639e-5,"MEAN_MOTION_DOT":3.06e-6,"MEAN_MOTION_DDOT":0},{"OBJECT_NAME":"SL-8 R/B","OBJECT_ID":"1968-040B","EPOCH":"2026-03-18T00:40:49.916928","MEAN_MOTION":15.03312794,"ECCENTRICITY":0.0023511,"INCLINATION":74.0304,"RA_OF_ASC_NODE":296.6552,"ARG_OF_PERICENTER":117.3095,"MEAN_ANOMALY":243.0492,"EPHEMERIS_TYPE":0,"CLASSIFICATION_TYPE":"U","NORAD_CAT_ID":3230,"ELEMENT_SET_NO":999,"REV_AT_EPOCH":9126,"BSTAR":0.00019351208,"MEAN_MOTION_DOT":2.599e-5,"MEAN_MOTION_DDOT":0},{"OBJECT_NAME":"OAO 2","OBJECT_ID":"1968-110A","EPOCH":"2026-03-18T01:28:38.733888","MEAN_MOTION":14.47312523,"ECCENTRICITY":0.00062323,"INCLINATION":34.9924,"RA_OF_ASC_NODE":218.4797,"ARG_OF_PERICENTER":266.3097,"MEAN_ANOMALY":93.6881,"EPHEMERIS_TYPE":0,"CLASSIFICATION_TYPE":"U","NORAD_CAT_ID":3597,"ELEMENT_SET_NO":999,"REV_AT_EPOCH":2031,"BSTAR":5.8339215e-5,"MEAN_MOTION_DOT":1.98e-6,"MEAN_MOTION_DDOT":0},{"OBJECT_NAME":"ISIS 1","OBJECT_ID":"1969-009A","EPOCH":"2026-03-18T03:03:50.779584","MEAN_MOTION":11.30416763,"ECCENTRICITY":0.17078914,"INCLINATION":88.4526,"RA_OF_ASC_NODE":154.3883,"ARG_OF_PERICENTER":72.1411,"MEAN_ANOMALY":305.7974,"EPHEMERIS_TYPE":0,"CLASSIFICATION_TYPE":"U","NORAD_CAT_ID":3669,"ELEMENT_SET_NO":999,"REV_AT_EPOCH":34948,"BSTAR":9.2688789e-5,"MEAN_MOTION_DOT":1.53e-6,"MEAN_MOTION_DDOT":0},{"OBJECT_NAME":"SERT 2","OBJECT_ID":"1970-009A","EPOCH":"2026-03-18T07:48:00.781920","MEAN_MOTION":13.58730671,"ECCENTRICITY":0.00053797,"INCLINATION":99.2771,"RA_OF_ASC_NODE":19.9466,"ARG_OF_PERICENTER":134.867,"MEAN_ANOMALY":340.122,"EPHEMERIS_TYPE":0,"CLASSIFICATION_TYPE":"U","NORAD_CAT_ID":4327,"ELEMENT_SET_NO":999,"REV_AT_EPOCH":78106,"BSTAR":5.3034587e-5,"MEAN_MOTION_DOT":-3.0e-8,"MEAN_MOTION_DDOT":0},{"OBJECT_NAME":"SL-3 R/B","OBJECT_ID":"1971-028B","EPOCH":"2026-03-18T07:22:23.765664","MEAN_MOTION":15.61878636,"ECCENTRICITY":0.001342,"INCLINATION":81.2368,"RA_OF_ASC_NODE":41.379,"ARG_OF_PERICENTER":247.8482,"MEAN_ANOMALY":112.1348,"EPHEMERIS_TYPE":0,"CLASSIFICATION_TYPE":"U","NORAD_CAT_ID":5118,"ELEMENT_SET_NO":999,"REV_AT_EPOCH":99001,"BSTAR":0.00037412297,"MEAN_MOTION_DOT":0.00032717,"MEAN_MOTION_DDOT":0},{"OBJECT_NAME":"ASTEX 1","OBJECT_ID":"1971-089A","EPOCH":"2026-03-18T04:02:00.559392","MEAN_MOTION":14.50779023,"ECCENTRICITY":0.00175068,"INCLINATION":92.7109,"RA_OF_ASC_NODE":154.5007,"ARG_OF_PERICENTER":60.7775,"MEAN_ANOMALY":299.5179,"EPHEMERIS_TYPE":0,"CLASSIFICATION_TYPE":"U","NORAD_CAT_ID":5560,"ELEMENT_SET_NO":999,"REV_AT_EPOCH":86353,"BSTAR":0.00012378251,"MEAN_MOTION_DOT":4.87e-6,"MEAN_MOTION_DDOT":0},{"OBJECT_NAME":"SL-8 R/B","OBJECT_ID":"1971-119B","EPOCH":"2026-03-18T06:49:35.076864","MEAN_MOTION":14.38055822,"ECCENTRICITY":0.05475882,"INCLINATION":73.888,"RA_OF_ASC_NODE":159.6528,"ARG_OF_PERICENTER":124.4766,"MEAN_ANOMALY":240.9385,"EPHEMERIS_TYPE":0,"CLASSIFICATION_TYPE":"U","NORAD_CAT_ID":5730,"ELEMENT_SET_NO":999,"REV_AT_EPOCH":65672,"BSTAR":0.00037131527,"MEAN_MOTION_DOT":7.098e-5,"MEAN_MOTION_DDOT":0},{"OBJECT_NAME":"OAO 3 (COPERNICUS)","OBJECT_ID":"1972-065A","EPOCH":"2026-03-17T20:00:08.000352","MEAN_MOTION":14.60004632,"ECCENTRICITY":0.00071521,"INCLINATION":35.0049,"RA_OF_ASC_NODE":250.9171,"ARG_OF_PERICENTER":231.7274,"MEAN_ANOMALY":335.5352,"EPHEMERIS_TYPE":0,"CLASSIFICATION_TYPE":"U","NORAD_CAT_ID":6153,"ELEMENT_SET_NO":999,"REV_AT_EPOCH":84738,"BSTAR":6.6916714e-5,"MEAN_MOTION_DOT":3.05e-6,"MEAN_MOTION_DDOT":0},{"OBJECT_NAME":"ATLAS CENTAUR R/B","OBJECT_ID":"1972-065B","EPOCH":"2026-03-18T03:20:33.486144","MEAN_MOTION":14.77711049,"ECCENTRICITY":0.00328817,"INCLINATION":35.0007,"RA_OF_ASC_NODE":256.2349,"ARG_OF_PERICENTER":80.8868,"MEAN_ANOMALY":279.5551,"EPHEMERIS_TYPE":0,"CLASSIFICATION_TYPE":"U","NORAD_CAT_ID":6155,"ELEMENT_SET_NO":999,"REV_AT_EPOCH":84251,"BSTAR":0.00017136234,"MEAN_MOTION_DOT":1.235e-5,"MEAN_MOTION_DDOT":0},{"OBJECT_NAME":"SL-8 R/B","OBJECT_ID":"1975-112B","EPOCH":"2026-03-18T06:25:15.223584","MEAN_MOTION":14.38208852,"ECCENTRICITY":0.00144377,"INCLINATION":74.0637,"RA_OF_ASC_NODE":3.134,"ARG_OF_PERICENTER":92.7772,"MEAN_ANOMALY":267.5035,"EPHEMERIS_TYPE":0,"CLASSIFICATION_TYPE":"U","NORAD_CAT_ID":8459,"ELEMENT_SET_NO":999,"REV_AT_EPOCH":63310,"BSTAR":8.5471363e-5,"MEAN_MOTION_DOT":2.34e-6,"MEAN_MOTION_DDOT":0},{"OBJECT_NAME":"SL-3 R/B","OBJECT_ID":"1977-057B","EPOCH":"2026-03-18T04:48:04.174848","MEAN_MOTION":15.45737307,"ECCENTRICITY":0.00062018,"INCLINATION":97.5775,"RA_OF_ASC_NODE":249.4979,"ARG_OF_PERICENTER":248.4729,"MEAN_ANOMALY":111.5859,"EPHEMERIS_TYPE":0,"CLASSIFICATION_TYPE":"U","NORAD_CAT_ID":10114,"ELEMENT_SET_NO":999,"REV_AT_EPOCH":66964,"BSTAR":0.00022650896,"MEAN_MOTION_DOT":0.00010864,"MEAN_MOTION_DDOT":0},{"OBJECT_NAME":"SEASAT 1","OBJECT_ID":"1978-064A","EPOCH":"2026-03-18T01:45:46.018656","MEAN_MOTION":14.46167059,"ECCENTRICITY":0.00024497,"INCLINATION":108.0092,"RA_OF_ASC_NODE":143.0917,"ARG_OF_PERICENTER":282.1376,"MEAN_ANOMALY":77.9495,"EPHEMERIS_TYPE":0,"CLASSIFICATION_TYPE":"U","NORAD_CAT_ID":10967,"ELEMENT_SET_NO":999,"REV_AT_EPOCH":50772,"BSTAR":9.4766729e-5,"MEAN_MOTION_DOT":2.01e-6,"MEAN_MOTION_DDOT":0},{"OBJECT_NAME":"SL-14 R/B","OBJECT_ID":"1979-011B","EPOCH":"2026-03-18T07:11:20.128128","MEAN_MOTION":14.91918933,"ECCENTRICITY":0.00168842,"INCLINATION":82.5203,"RA_OF_ASC_NODE":88.3983,"ARG_OF_PERICENTER":33.7184,"MEAN_ANOMALY":326.5106,"EPHEMERIS_TYPE":0,"CLASSIFICATION_TYPE":"U","NORAD_CAT_ID":11267,"ELEMENT_SET_NO":999,"REV_AT_EPOCH":53006,"BSTAR":5.4585424e-5,"MEAN_MOTION_DOT":5.79e-6,"MEAN_MOTION_DDOT":0}]
